NORAD_CAT_ID,OBJECT_NAME,OBJECT_TYPE,EPOCH,MEAN_MOTION,ECCENTRICITY,INCLINATION,RA_OF_ASC_NODE,ARG_OF_PERICENTER,MEAN_ANOMALY,BSTAR,MEAN_MOTION_DOT,MEAN_MOTION_DDOT,TLE_LINE0,TLE_LINE1,TLE_LINE2,SEMIMAJOR_AXIS,PERIOD,APOGEE,PERIGEE,DECAYED
54798.0,STARLINK-5420,PAYLOAD,2023-11-29 12:14:52,15.08850961,0.0001321,53.2144,150.1941,98.9039,261.2103,0.00030009,4.493e-05,0.0,0 STARLINK-5420,1 54798U 22175AS  23333.51032544  .00004493  00000-0  30009-3 0  9993,2 54798  53.2144 150.1941 0001321  98.9039 261.2103 15.08850961 54793,6917.847,95.437,540.626,538.798,0.0
54798.0,STARLINK-5420,PAYLOAD,2023-11-30 12:05:38,15.08850999,0.0001654,53.2168,145.7366,105.808,254.3095,0.00011175,1.491e-05,0.0,0 STARLINK-5420,1 54798U 22175AS  23334.50391915  .00001491  00000-0  11175-3 0  9991,2 54798  53.2168 145.7366 0001654 105.8080 254.3095 15.08850999 52784,6917.847,95.437,540.856,538.568,0.0
54798.0,STARLINK-5420,PAYLOAD,2023-12-01 11:56:25,15.0884408,0.0001535,53.2165,141.276,106.121,253.9951,-2.904e-05,-7.5e-06,0.0,0 STARLINK-5420,1 54798U 22175AS  23335.49751777 -.00000750  00000-0 -29040-4 0  9996,2 54798  53.2165 141.2760 0001535 106.1210 253.9951 15.08844080 52934,6917.868,95.437,540.795,538.671,0.0
54798.0,STARLINK-5420,PAYLOAD,2023-12-01 18:17:58,15.08844888,0.0001454,53.2173,140.0864,104.7962,255.3192,-4.8098e-06,-3.65e-06,0.0,0 STARLINK-5420,1 54798U 22175AS  23335.76247941 -.00000365  00000-0 -48098-5 0  9996,2 54798  53.2173 140.0864 0001454 104.7962 255.3192 15.08844888 55137,6917.865,95.437,540.736,538.725,0.0
54798.0,STARLINK-5420,PAYLOAD,2023-12-02 18:08:44,15.08849784,0.0001294,53.2171,135.6254,94.3848,265.7292,0.00012497,1.702e-05,0.0,0 STARLINK-5420,1 54798U 22175AS  23336.75606964  .00001702  00000-0  12497-3 0  9996,2 54798  53.2171 135.6254 0001294  94.3848 265.7292 15.08849784 53120,6917.85,95.437,540.611,538.82,0.0
54798.0,STARLINK-5420,PAYLOAD,2023-12-03 10:02:37,15.08830477,0.000139,53.2185,132.6553,76.2537,283.861,2.7544e-07,-2.84e-06,0.0,0 STARLINK-5420,1 54798U 22175AS  23337.41848794 -.00000284  00000-0  27544-6 0  9996,2 54798  53.2185 132.6553 0001390  76.2537 283.8610 15.08830477 53220,6917.909,95.438,540.736,538.813,0.0
54798.0,STARLINK-5420,PAYLOAD,2023-12-03 17:59:33,15.08825224,0.0001349,53.2172,131.1619,87.0372,273.0774,-4.9546e-05,-1.076e-05,0.0,0 STARLINK-5420,1 54798U 22175AS  23337.74969619 -.00001076  00000-0 -49546-4 0  9997,2 54798  53.2172 131.1619 0001349  87.0372 273.0774 15.08825224 53275,6917.926,95.438,540.724,538.857,0.0
54798.0,STARLINK-5420,PAYLOAD,2023-12-05 09:44:13,15.08822865,0.0001425,53.2175,123.7278,85.0617,275.0538,0.00013508,1.862e-05,0.0,0 STARLINK-5420,1 54798U 22175AS  23339.40570710  .00001862  00000-0  13508-3 0  9991,2 54798  53.2175 123.7278 0001425  85.0617 275.0538 15.08822865 53527,6917.933,95.439,540.784,538.812,0.0
54798.0,STARLINK-5420,PAYLOAD,2023-12-05 19:16:31,15.0883058,0.0002883,53.2171,121.9481,81.3236,278.8083,0.00025045,3.699e-05,0.0,0 STARLINK-5420,1 54798U 22175AS  23339.80314533  .00003699  00000-0  25045-3 0  9993,2 54798  53.2171 121.9481 0002883  81.3236 278.8083 15.08830580 53589,6917.909,95.438,541.769,537.78,0.0
54798.0,STARLINK-5420,PAYLOAD,2023-12-06 12:45:44,15.08849173,0.0001592,53.2178,118.6744,80.8981,279.2192,0.00014889,2.083e-05,0.0,0 STARLINK-5420,1 54798U 22175AS  23340.53176764  .00002083  00000-0  14889-3 0  9997,2 54798  53.2178 118.6744 0001592  80.8981 279.2192 15.08849173 55854,6917.852,95.437,540.819,538.616,0.0
54798.0,STARLINK-5420,PAYLOAD,2023-12-06 19:07:17,15.08861086,0.0001841,53.2164,117.4828,94.8664,265.2538,7.6123e-05,9.24e-06,0.0,0 STARLINK-5420,1 54798U 22175AS  23340.79672818  .00000924  00000-0  76123-4 0  9998,2 54798  53.2164 117.4828 0001841  94.8664 265.2538 15.08861086 53730,6917.816,95.436,540.955,538.407,0.0
54798.0,STARLINK-5420,PAYLOAD,2023-12-07 12:36:32,15.08848673,0.0002095,53.2171,114.2078,114.509,245.6121,-4.2493e-05,-9.65e-06,0.0,0 STARLINK-5420,1 54798U 22175AS  23341.52537103 -.00000965  00000-0 -42493-4 0  9997,2 54798  53.2171 114.2078 0002095 114.5090 245.6121 15.08848673 56005,6917.854,95.437,541.168,538.27,0.0
54798.0,STARLINK-5420,PAYLOAD,2023-12-07 18:58:04,15.08843875,0.0001927,53.2173,113.0199,108.0051,252.1151,-8.6753e-05,-1.669e-05,0.0,0 STARLINK-5420,1 54798U 22175AS  23341.79033394 -.00001669  00000-0 -86753-4 0  9998,2 54798  53.2173 113.0199 0001927 108.0051 252.1151 15.08843875 53884,6917.869,95.437,541.067,538.4,0.0
54798.0,STARLINK-5420,PAYLOAD,2023-12-08 12:27:18,15.08878247,0.0001436,53.2181,109.7519,89.0609,271.0547,-0.00037712,-6.291e-05,0.0,0 STARLINK-5420,1 54798U 22175AS  23342.51896006 -.00006291  00000-0 -37712-3 0  9992,2 54798  53.2181 109.7519 0001436  89.0609 271.0547 15.08878247 53995,6917.763,95.435,540.622,538.635,0.0
54798.0,STARLINK-5420,PAYLOAD,2023-12-09 09:07:19,15.08837461,0.0001514,53.2191,105.888,93.8067,266.3098,-1.77e-05,-5.7e-06,0.0,0 STARLINK-5420,1 54798U 22175AS  23343.38009052 -.00000570  00000-0 -17700-4 0  9995,2 54798  53.2191 105.8880 0001514  93.8067 266.3098 15.08837461 54129,6917.888,95.438,540.801,538.706,0.0
54798.0,STARLINK-5420,PAYLOAD,2023-12-09 12:18:06,15.08836393,0.0001449,53.2186,105.2928,94.8212,265.2946,-3.9469e-05,-9.16e-06,0.0,0 STARLINK-5420,1 54798U 22175AS  23343.51257199 -.00000916  00000-0 -39469-4 0  9997,2 54798  53.2186 105.2928 0001449  94.8212 265.2946 15.08836393 56305,6917.891,95.438,540.759,538.754,0.0
54798.0,STARLINK-5420,PAYLOAD,2023-12-10 12:08:53,15.0883949,0.0001567,53.2185,100.8312,94.6364,265.4807,-1.6966e-05,-5.58e-06,0.0,0 STARLINK-5420,1 54798U 22175AS  23344.50617123 -.00000558  00000-0 -16966-4 0  9993,2 54798  53.2185 100.8312 0001567  94.6364 265.4807 15.08839490 54294,6917.882,95.438,540.831,538.663,0.0
54798.0,STARLINK-5420,PAYLOAD,2023-12-10 13:44:16,15.08839726,0.0001425,53.219,100.5351,92.829,267.2865,1.0025e-05,-1.28e-06,0.0,0 STARLINK-5420,1 54798U 22175AS  23344.57241027 -.00000128  00000-0  10025-4 0  9998,2 54798  53.2190 100.5351 0001425  92.8290 267.2865 15.08839726 56468,6917.881,95.438,540.732,538.76,0.0
54798.0,STARLINK-5420,PAYLOAD,2023-12-10 15:19:40,15.08767105,0.000177,53.2174,100.2365,77.8497,282.2693,0.0010308,0.00016123,0.0,0 STARLINK-5420,1 54798U 22175AS  23344.63866564  .00016123  00000-0  10308-2 0  9997,2 54798  53.2174 100.2365 0001770  77.8497 282.2693 15.08767105 54316,6918.103,95.442,541.193,538.744,0.0
54798.0,STARLINK-5420,PAYLOAD,2023-12-11 11:59:40,15.08836716,0.0001257,53.2173,96.371,82.8861,277.2274,6.6837e-05,7.76e-06,0.0,0 STARLINK-5420,1 54798U 22175AS  23345.49977107  .00000776  00000-0  66837-4 0  9995,2 54798  53.2173  96.3710 0001257  82.8861 277.2274 15.08836716 54443,6917.89,95.438,540.625,538.886,0.0
54798.0,STARLINK-5420,PAYLOAD,2023-12-11 13:35:03,15.08837882,0.0001268,53.2174,96.0737,82.565,277.5486,7.6042e-05,9.22e-06,0.0,0 STARLINK-5420,1 54798U 22175AS  23345.56601044  .00000922  00000-0  76042-4 0  9999,2 54798  53.2174  96.0737 0001268  82.5650 277.5486 15.08837882 56619,6917.887,95.438,540.629,538.875,0.0
54798.0,STARLINK-5420,PAYLOAD,2023-12-11 15:10:26,15.08840057,0.0001275,53.2177,95.7766,80.0075,280.1061,9.2708e-05,1.188e-05,0.0,0 STARLINK-5420,1 54798U 22175AS  23345.63224884  .00001188  00000-0  92708-4 0  9992,2 54798  53.2177  95.7766 0001275  80.0075 280.1061 15.08840057 56620,6917.88,95.438,540.627,538.863,0.0
54798.0,STARLINK-5420,PAYLOAD,2023-12-12 13:25:50,15.08827381,0.0001853,53.2189,91.612,56.3044,303.8125,0.0002059,2.989e-05,0.0,0 STARLINK-5420,1 54798U 22175AS  23346.55961474  .00002989  00000-0  20590-3 0  9996,2 54798  53.2189  91.6120 0001853  56.3044 303.8125 15.08827381 56760,6917.919,95.438,541.066,538.502,0.0
54798.0,STARLINK-5420,PAYLOAD,2023-12-12 15:01:13,15.08841513,0.0001877,53.2192,91.316,53.0161,307.1003,5.4064e-05,5.72e-06,0.0,0 STARLINK-5420,1 54798U 22175AS  23346.62585210  .00000572  00000-0  54064-4 0  9994,2 54798  53.2192  91.3160 0001877  53.0161 307.1003 15.08841513 54612,6917.876,95.437,541.039,538.442,0.0
54798.0,STARLINK-5420,PAYLOAD,2023-12-13 13:16:37,15.08830884,0.0001714,53.2183,87.1615,61.8321,298.2844,0.0002091,3.041e-05,0.0,0 STARLINK-5420,1 54798U 22175AS  23347.55321183  .00003041  00000-0  20910-3 0  9990,2 54798  53.2183  87.1615 0001714  61.8321 298.2844 15.08830884 56912,6917.908,95.438,540.959,538.588,0.0
54798.0,STARLINK-5420,PAYLOAD,2023-12-14 11:32:01,15.08827389,0.0001444,53.2176,82.991,85.7116,274.4041,0.00018611,2.674e-05,0.0,0 STARLINK-5420,1 54798U 22175AS  23348.48057136  .00002674  00000-0  18611-3 0  9993,2 54798  53.2176  82.9910 0001444  85.7116 274.4041 15.08827389 54898,6917.919,95.438,540.783,538.785,0.0
54798.0,STARLINK-5420,PAYLOAD,2023-12-14 13:07:24,15.08843414,0.0001349,53.2169,82.6961,81.651,278.4635,9.4109e-07,-2.73e-06,0.0,0 STARLINK-5420,1 54798U 22175AS  23348.54680954 -.00000273  00000-0  94109-6 0  9993,2 54798  53.2169  82.6961 0001349  81.6510 278.4635 15.08843414 57062,6917.87,95.437,540.668,538.802,0.0
54798.0,STARLINK-5420,PAYLOAD,2023-12-15 11:22:49,15.08834084,0.0001245,53.2172,78.5318,77.445,282.6682,-3.1592e-05,-7.91e-06,0.0,0 STARLINK-5420,1 54798U 22175AS  23349.47417830 -.00000791  00000-0 -31592-4 0  9998,2 54798  53.2172  78.5318 0001245  77.4450 282.6682 15.08834084 55045,6917.898,95.438,540.625,538.902,0.0
54798.0,STARLINK-5420,PAYLOAD,2023-12-15 12:58:11,15.0883588,0.0001242,53.2175,78.2329,90.1708,269.9427,-2.1115e-05,-6.24e-06,0.0,0 STARLINK-5420,1 54798U 22175AS  23349.54041645 -.00000624  00000-0 -21115-4 0  9998,2 54798  53.2175  78.2329 0001242  90.1708 269.9427 15.08835880 57213,6917.893,95.438,540.617,538.899,0.0
54798.0,STARLINK-5420,PAYLOAD,2023-12-16 11:13:34,15.08853099,0.0001421,53.2188,74.0736,119.7376,240.3757,0.00012312,1.673e-05,0.0,0 STARLINK-5420,1 54798U 22175AS  23350.46776422  .00001673  00000-0  12312-3 0  9990,2 54798  53.2188  74.0736 0001421 119.7376 240.3757 15.08853099 55197,6917.84,95.437,540.688,538.722,0.0
